[{"OBJECT_NAME":"STARLINK-4094","OBJECT_ID":"2022-083R","EPOCH":"2022-08-19T04:00:01.999584","MEAN_MOTION":15.49881095,"ECCENTRICITY":0.000134,"INCLINATION":53.2177,"RA_OF_ASC_NODE":246.5479,"ARG_OF_PERICENTER":52.2134,"MEAN_ANOMALY":275.0889,"EPHEMERIS_TYPE":0,"CLASSIFICATION_TYPE":"U","NORAD_CAT_ID":53147,"ELEMENT_SET_NO":999,"REV_AT_EPOCH":576,"BSTAR":0.0001197,"MEAN_MOTION_DOT":6.347e-5,"MEAN_MOTION_DDOT":0},{"OBJECT_NAME":"STARLINK-4066","OBJECT_ID":"2022-083S","EPOCH":"2022-08-19T04:00:01.999584","MEAN_MOTION":15.49882119,"ECCENTRICITY":0.0001463,"INCLINATION":53.2177,"RA_OF_ASC_NODE":246.5226,"ARG_OF_PERICENTER":49.8779,"MEAN_ANOMALY":275.7381,"EPHEMERIS_TYPE":0,"CLASSIFICATION_TYPE":"U","NORAD_CAT_ID":53148,"ELEMENT_SET_NO":999,"REV_AT_EPOCH":576,"BSTAR":9.0273e-5,"MEAN_MOTION_DOT":4.674e-5,"MEAN_MOTION_DDOT":0},{"OBJECT_NAME":"STARLINK-4021","OBJECT_ID":"2022-083T","EPOCH":"2022-08-18T22:00:00.999936","MEAN_MOTION":15.73153905,"ECCENTRICITY":0.000279,"INCLINATION":53.215,"RA_OF_ASC_NODE":246.8434,"ARG_OF_PERICENTER":9.4999,"MEAN_ANOMALY":42.7936,"EPHEMERIS_TYPE":0,"CLASSIFICATION_TYPE":"U","NORAD_CAT_ID":53149,"ELEMENT_SET_NO":999,"REV_AT_EPOCH":573,"BSTAR":0.0006429,"MEAN_MOTION_DOT":0.00090414,"MEAN_MOTION_DDOT":0},{"OBJECT_NAME":"STARLINK-4038","OBJECT_ID":"2022-083U","EPOCH":"2022-08-18T22:00:00.999936","MEAN_MOTION":15.73234764,"ECCENTRICITY":0.0002953,"INCLINATION":53.2147,"RA_OF_ASC_NODE":246.8572,"ARG_OF_PERICENTER":10.4287,"MEAN_ANOMALY":34.7216,"EPHEMERIS_TYPE":0,"CLASSIFICATION_TYPE":"U","NORAD_CAT_ID":53150,"ELEMENT_SET_NO":999,"REV_AT_EPOCH":573,"BSTAR":-4.7665e-5,"MEAN_MOTION_DOT":-7.318e-5,"MEAN_MOTION_DDOT":0},{"OBJECT_NAME":"STARLINK-4040","OBJECT_ID":"2022-083V","EPOCH":"2022-08-19T04:00:01.999584","MEAN_MOTION":15.73282024,"ECCENTRICITY":0.0002862,"INCLINATION":53.2158,"RA_OF_ASC_NODE":245.6228,"ARG_OF_PERICENTER":18.0727,"MEAN_ANOMALY":5.6663,"EPHEMERIS_TYPE":0,"CLASSIFICATION_TYPE":"U","NORAD_CAT_ID":53151,"ELEMENT_SET_NO":999,"REV_AT_EPOCH":577,"BSTAR":-0.00092674,"MEAN_MOTION_DOT":-0.00129194,"MEAN_MOTION_DDOT":0},{"OBJECT_NAME":"STARLINK-4045","OBJECT_ID":"2022-083W","EPOCH":"2022-08-18T22:00:00.999936","MEAN_MOTION":15.73144473,"ECCENTRICITY":0.0002966,"INCLINATION":53.2156,"RA_OF_ASC_NODE":246.8615,"ARG_OF_PERICENTER":14.4936,"MEAN_ANOMALY":31.218,"EPHEMERIS_TYPE":0,"CLASSIFICATION_TYPE":"U","NORAD_CAT_ID":53152,"ELEMENT_SET_NO":999,"REV_AT_EPOCH":130,"BSTAR":0.00073415,"MEAN_MOTION_DOT":0.00103457,"MEAN_MOTION_DDOT":0},{"OBJECT_NAME":"STARLINK-4098","OBJECT_ID":"2022-083X","EPOCH":"2022-08-19T04:00:01.999584","MEAN_MOTION":15.73313151,"ECCENTRICITY":0.0002938,"INCLINATION":53.2162,"RA_OF_ASC_NODE":245.6169,"ARG_OF_PERICENTER":14.0494,"MEAN_ANOMALY":10.2583,"EPHEMERIS_TYPE":0,"CLASSIFICATION_TYPE":"U","NORAD_CAT_ID":53153,"ELEMENT_SET_NO":999,"REV_AT_EPOCH":577,"BSTAR":-0.0015375,"MEAN_MOTION_DOT":-0.00212146,"MEAN_MOTION_DDOT":0},{"OBJECT_NAME":"STARLINK-4077","OBJECT_ID":"2022-083Y","EPOCH":"2022-08-19T04:00:01.999584","MEAN_MOTION":15.73278247,"ECCENTRICITY":0.0002697,"INCLINATION":53.2142,"RA_OF_ASC_NODE":245.6162,"ARG_OF_PERICENTER":16.3004,"MEAN_ANOMALY":6.8319,"EPHEMERIS_TYPE":0,"CLASSIFICATION_TYPE":"U","NORAD_CAT_ID":53154,"ELEMENT_SET_NO":999,"REV_AT_EPOCH":577,"BSTAR":-0.0010157,"MEAN_MOTION_DOT":-0.00141307,"MEAN_MOTION_DDOT":0},{"OBJECT_NAME":"STARLINK-4088","OBJECT_ID":"2022-083Z","EPOCH":"2022-08-18T22:00:00.999936","MEAN_MOTION":15.7323744,"ECCENTRICITY":0.0004145,"INCLINATION":53.2152,"RA_OF_ASC_NODE":246.8512,"ARG_OF_PERICENTER":0.1183,"MEAN_ANOMALY":49.2548,"EPHEMERIS_TYPE":0,"CLASSIFICATION_TYPE":"U","NORAD_CAT_ID":53155,"ELEMENT_SET_NO":999,"REV_AT_EPOCH":573,"BSTAR":-5.2293e-5,"MEAN_MOTION_DOT":-7.973e-5,"MEAN_MOTION_DDOT":0},{"OBJECT_NAME":"STARLINK-4087","OBJECT_ID":"2022-083AA","EPOCH":"2022-08-18T22:00:00.999936","MEAN_MOTION":15.7325683,"ECCENTRICITY":0.000285,"INCLINATION":53.2153,"RA_OF_ASC_NODE":246.853,"ARG_OF_PERICENTER":12.9612,"MEAN_ANOMALY":35.7079,"EPHEMERIS_TYPE":0,"CLASSIFICATION_TYPE":"U","NORAD_CAT_ID":53156,"ELEMENT_SET_NO":999,"REV_AT_EPOCH":573,"BSTAR":-1.7583e-5,"MEAN_MOTION_DOT":-3.096e-5,"MEAN_MOTION_DDOT":0},{"OBJECT_NAME":"STARLINK-4093","OBJECT_ID":"2022-083AB","EPOCH":"2022-08-19T04:00:01.999584","MEAN_MOTION":15.73322959,"ECCENTRICITY":0.0002957,"INCLINATION":53.2164,"RA_OF_ASC_NODE":245.6105,"ARG_OF_PERICENTER":14.9953,"MEAN_ANOMALY":12.3113,"EPHEMERIS_TYPE":0,"CLASSIFICATION_TYPE":"U","NORAD_CAT_ID":53157,"ELEMENT_SET_NO":999,"REV_AT_EPOCH":577,"BSTAR":-0.0014625,"MEAN_MOTION_DOT":-0.0020215,"MEAN_MOTION_DDOT":0},{"OBJECT_NAME":"STARLINK-4054","OBJECT_ID":"2022-083AC","EPOCH":"2022-08-18T22:00:00.999936","MEAN_MOTION":15.73230308,"ECCENTRICITY":0.0002825,"INCLINATION":53.2149,"RA_OF_ASC_NODE":246.8523,"ARG_OF_PERICENTER":13.7229,"MEAN_ANOMALY":34.4368,"EPHEMERIS_TYPE":0,"CLASSIFICATION_TYPE":"U","NORAD_CAT_ID":53158,"ELEMENT_SET_NO":999,"REV_AT_EPOCH":573,"BSTAR":4.0682e-6,"MEAN_MOTION_DOT":-5.1e-7,"MEAN_MOTION_DDOT":0},{"OBJECT_NAME":"STARLINK-4111","OBJECT_ID":"2022-083AD","EPOCH":"2022-08-18T22:00:00.999936","MEAN_MOTION":15.73202685,"ECCENTRICITY":0.0004394,"INCLINATION":53.2174,"RA_OF_ASC_NODE":246.8395,"ARG_OF_PERICENTER":5.8208,"MEAN_ANOMALY":45.7317,"EPHEMERIS_TYPE":0,"CLASSIFICATION_TYPE":"U","NORAD_CAT_ID":53159,"ELEMENT_SET_NO":999,"REV_AT_EPOCH":573,"BSTAR":1.5769e-5,"MEAN_MOTION_DOT":1.589e-5,"MEAN_MOTION_DDOT":0},{"OBJECT_NAME":"STARLINK-4096","OBJECT_ID":"2022-083AE","EPOCH":"2022-08-19T04:00:01.999584","MEAN_MOTION":15.73305356,"ECCENTRICITY":0.0002965,"INCLINATION":53.2163,"RA_OF_ASC_NODE":245.6135,"ARG_OF_PERICENTER":14.8498,"MEAN_ANOMALY":11.8982,"EPHEMERIS_TYPE":0,"CLASSIFICATION_TYPE":"U","NORAD_CAT_ID":53160,"ELEMENT_SET_NO":999,"REV_AT_EPOCH":577,"BSTAR":-0.0014348,"MEAN_MOTION_DOT":-0.00198274,"MEAN_MOTION_DDOT":0},{"OBJECT_NAME":"STARLINK-4055","OBJECT_ID":"2022-083AF","EPOCH":"2022-08-19T04:00:01.999584","MEAN_MOTION":15.73284799,"ECCENTRICITY":0.0003116,"INCLINATION":53.2153,"RA_OF_ASC_NODE":245.6059,"ARG_OF_PERICENTER":13.8157,"MEAN_ANOMALY":16.4868,"EPHEMERIS_TYPE":0,"CLASSIFICATION_TYPE":"U","NORAD_CAT_ID":53161,"ELEMENT_SET_NO":999,"REV_AT_EPOCH":577,"BSTAR":-0.0010757,"MEAN_MOTION_DOT":-0.00149531,"MEAN_MOTION_DDOT":0},{"OBJECT_NAME":"STARLINK-4114","OBJECT_ID":"2022-083AG","EPOCH":"2022-08-18T22:00:00.999936","MEAN_MOTION":15.73203221,"ECCENTRICITY":0.0002988,"INCLINATION":53.2171,"RA_OF_ASC_NODE":246.8407,"ARG_OF_PERICENTER":13.6459,"MEAN_ANOMALY":37.3101,"EPHEMERIS_TYPE":0,"CLASSIFICATION_TYPE":"U","NORAD_CAT_ID":53162,"ELEMENT_SET_NO":999,"REV_AT_EPOCH":130,"BSTAR":8.7889e-6,"MEAN_MOTION_DOT":6.11e-6,"MEAN_MOTION_DDOT":0},{"OBJECT_NAME":"STARLINK-4104","OBJECT_ID":"2022-083AH","EPOCH":"2022-08-19T04:00:01.999584","MEAN_MOTION":15.73302902,"ECCENTRICITY":0.0002665,"INCLINATION":53.2164,"RA_OF_ASC_NODE":245.6022,"ARG_OF_PERICENTER":13.9189,"MEAN_ANOMALY":17.551,"EPHEMERIS_TYPE":0,"CLASSIFICATION_TYPE":"U","NORAD_CAT_ID":53163,"ELEMENT_SET_NO":999,"REV_AT_EPOCH":577,"BSTAR":-0.0012206,"MEAN_MOTION_DOT":-0.00169309,"MEAN_MOTION_DDOT":0}]