STARLINK-4094           
1 53147U 22083R   22231.16668981  .00006347  00000+0  11970-3 0  9990
2 53147  53.2177 246.5479 0001340  52.2134 275.0889 15.49881095  5766
STARLINK-4066           
1 53148U 22083S   22231.16668981  .00004674  00000+0  90273-4 0  9996
2 53148  53.2177 246.5226 0001463  49.8779 275.7381 15.49882119  5762
STARLINK-4021           
1 53149U 22083T   22230.91667824  .00090414  00000+0  64290-3 0  9990
2 53149  53.2150 246.8434 0002790   9.4999  42.7936 15.73153905  5734
STARLINK-4038           
1 53150U 22083U   22230.91667824 -.00007318  00000+0 -47665-4 0  9993
2 53150  53.2147 246.8572 0002953  10.4287  34.7216 15.73234764  5733
STARLINK-4040           
1 53151U 22083V   22231.16668981 -.00129194  00000+0 -92674-3 0  9993
2 53151  53.2158 245.6228 0002862  18.0727   5.6663 15.73282024  5772
STARLINK-4045           
1 53152U 22083W   22230.91667824  .00103457  00000+0  73415-3 0  9995
2 53152  53.2156 246.8615 0002966  14.4936  31.2180 15.73144473  1300
STARLINK-4098           
1 53153U 22083X   22231.16668981 -.00212146  00000+0 -15375-2 0  9997
2 53153  53.2162 245.6169 0002938  14.0494  10.2583 15.73313151  5773
STARLINK-4077           
1 53154U 22083Y   22231.16668981 -.00141307  00000+0 -10157-2 0  9991
2 53154  53.2142 245.6162 0002697  16.3004   6.8319 15.73278247  5773
STARLINK-4088           
1 53155U 22083Z   22230.91667824 -.00007973  00000+0 -52293-4 0  9998
2 53155  53.2152 246.8512 0004145   0.1183  49.2548 15.73237440  5737
STARLINK-4087           
1 53156U 22083AA  22230.91667824 -.00003096  00000+0 -17583-4 0  9994
2 53156  53.2153 246.8530 0002850  12.9612  35.7079 15.73256830  5731
STARLINK-4093           
1 53157U 22083AB  22231.16668981 -.00202150  00000+0 -14625-2 0  9992
2 53157  53.2164 245.6105 0002957  14.9953  12.3113 15.73322959  5777
STARLINK-4054           
1 53158U 22083AC  22230.91667824 -.00000051  00000+0  40682-5 0  9990
2 53158  53.2149 246.8523 0002825  13.7229  34.4368 15.73230308  5734
STARLINK-4111           
1 53159U 22083AD  22230.91667824  .00001589  00000+0  15769-4 0  9994
2 53159  53.2174 246.8395 0004394   5.8208  45.7317 15.73202685  5738
STARLINK-4096           
1 53160U 22083AE  22231.16668981 -.00198274  00000+0 -14348-2 0  9999
2 53160  53.2163 245.6135 0002965  14.8498  11.8982 15.73305356  5775
STARLINK-4055           
1 53161U 22083AF  22231.16668981 -.00149531  00000+0 -10757-2 0  9992
2 53161  53.2153 245.6059 0003116  13.8157  16.4868 15.73284799  5771
STARLINK-4114           
1 53162U 22083AG  22230.91667824  .00000611  00000+0  87889-5 0  9996
2 53162  53.2171 246.8407 0002988  13.6459  37.3101 15.73203221  1309
STARLINK-4104           
1 53163U 22083AH  22231.16668981 -.00169309  00000+0 -12206-2 0  9990
2 53163  53.2164 245.6022 0002665  13.9189  17.5510 15.73302902  5772
